ORBCOMM FM06            
1 25118U 97084G   26173.33922366  .00000819  00000+0  25966-3 0  9996
2 25118  45.0147  27.9100 0000655 351.0860 178.4901 14.47572762495135
ORBCOMM FM04            
1 25159U 98007C   26173.48064227  .00000583  00000+0  24499-3 0  9994
2 25159 107.9626 180.3141 0041499 315.6707  44.1114 14.35749297477351
ORBCOMM FM19            
1 25415U 98046C   26173.51157220  .00000446  00000+0  18715-3 0  9994
2 25415  44.9924 218.2529 0004514 303.2839 204.6598 14.39502552457547
ORBCOMM FM20            
1 25416U 98046D   26173.50110319  .00000295  00000+0  14291-3 0  9999
2 25416  44.9925 226.2839 0002455 267.6736  92.3831 14.38071211457558
ORBCOMM FM27            
1 25481U 98053G   26173.67156601  .00000623  00000+0  24520-3 0  9992
2 25481  45.0043 309.3030 0001503 213.7867 146.2886 14.39149754451023
ORBCOMM FM32            
1 25982U 99065C   26173.64313693  .00000380  00000+0  17414-3 0  9999
2 25982  45.0132 147.4140 0004279  66.6906 293.4392 14.37135341387876
ORBCOMM FM109           
1 40086U 14040A   26173.71427410  .00000254  00000+0  89985-4 0  9995
2 40086  47.0036  65.3547 0001968 260.9663  99.1000 14.58849818635151
ORBCOMM FM110           
1 41182U 15081D   26173.71974780  .00000399  00000+0  12055-3 0  9999
2 41182  47.0032 335.2835 0002507 109.5784 250.5373 14.58886737558438
ORBCOMM FM118           
1 41183U 15081E   26172.86369703  .00001858  00000+0  42890-3 0  9999
2 41183  47.0044 339.6627 0002367  53.6254 306.4850 14.58882087558417
ORBCOMM FM112           
1 41184U 15081F   26173.48452763  .00000299  00000+0  99416-4 0  9993
2 41184  46.9982 245.1978 0003979 239.1471 120.9023 14.58909896559723
ORBCOMM FM113           
1 41185U 15081G   26173.25586494  .00000168  00000+0  71843-4 0  9997
2 41185  47.0000 246.6577 0002475 242.1842 117.8793 14.58862178559678
ORBCOMM FM108           
1 41187U 15081J   26173.01275556  .00000263  00000+0  91787-4 0  9992
2 41187  47.0030 159.3814 0003097 240.6358 119.4219 14.58877006560784
ORBCOMM FM117           
1 41188U 15081K   26173.66316012  .00000107  00000+0  58999-4 0  9992
2 41188  46.9994 154.9386 0003634 245.8412 114.2094 14.58867545560929
ORBCOMM FM116           
1 41189U 15081L   26173.50656448  .00000301  00000+0  99701-4 0  9998
2 41189  47.0013 245.4702 0000549 123.8798 236.2140 14.58888978559711
